[{"OBJECT_NAME":"STARLINK-31388","OBJECT_ID":"2024-076B","EPOCH":"2026-03-09T04:32:35.635776","MEAN_MOTION":15.2758107,"ECCENTRICITY":8.192e-5,"INCLINATION":43.0037,"RA_OF_ASC_NODE":12.0667,"ARG_OF_PERICENTER":304.7804,"MEAN_ANOMALY":55.2971,"EPHEMERIS_TYPE":0,"CLASSIFICATION_TYPE":"U","NORAD_CAT_ID":59565,"ELEMENT_SET_NO":999,"REV_AT_EPOCH":10642,"BSTAR":-0.00010530396,"MEAN_MOTION_DOT":-3.158e-5,"MEAN_MOTION_DDOT":0},{"OBJECT_NAME":"TOMORROW-S4","OBJECT_ID":"2024-247K","EPOCH":"2026-03-09T12:47:35.836224","MEAN_MOTION":15.27717249,"ECCENTRICITY":0.00044343,"INCLINATION":44.9818,"RA_OF_ASC_NODE":117.9996,"ARG_OF_PERICENTER":210.4078,"MEAN_ANOMALY":149.6548,"EPHEMERIS_TYPE":0,"CLASSIFICATION_TYPE":"U","NORAD_CAT_ID":62386,"ELEMENT_SET_NO":999,"REV_AT_EPOCH":6770,"BSTAR":0.00046927249,"MEAN_MOTION_DOT":0.00012677,"MEAN_MOTION_DDOT":0}]
