STARLINK-31388          
1 59565U 24076B   26068.18930134 -.00003158  00000+0 -10530-3 0  9990
2 59565  43.0037  12.0667 0000819 304.7804  55.2971 15.27581070106423
TOMORROW-S4             
1 62386U 24247K   26068.53305366  .00012677  00000+0  46927-3 0  9990
2 62386  44.9818 117.9996 0004434 210.4078 149.6548 15.27717249 67702
